FLOCK 4G-2              
1 62661U 25009BE  26068.66207492  .00013752  00000+0  51068-3 0  9995
2 62661  97.4044 151.2221 0003181 329.2677  30.8376 15.27675260121321
STARLINK-33703          
1 63418U 25065V   26068.47063811  .00032041  00000+0  11685-2 0  9994
2 63418  42.9979 108.5017 0000280 175.0836 185.0018 15.27589708 52806
